{
    "links": {
        "self": "http://www.neowsapp.com/rest/v1/neo/3596964?api_key=iIulBulltgU6a56xZRHN4H3l9WmuAYTsLGpBGhQ2"
    },
    "id": "3596964",
    "neo_reference_id": "3596964",
    "name": "(2012 BC102)",
    "designation": "2012 BC102",
    "nasa_jpl_url": "http://ssd.jpl.nasa.gov/sbdb.cgi?sstr=3596964",
    "absolute_magnitude_h": 24.1,
    "estimated_diameter": {
        "kilometers": {
            "estimated_diameter_min": 0.040230458,
            "estimated_diameter_max": 0.0899580388
        },
        "meters": {
            "estimated_diameter_min": 40.2304579834,
            "estimated_diameter_max": 89.9580388169
        },
        "miles": {
            "estimated_diameter_min": 0.0249980399,
            "estimated_diameter_max": 0.0558973165
        },
        "feet": {
            "estimated_diameter_min": 131.9896957704,
            "estimated_diameter_max": 295.1379320721
        }
    },
    "is_potentially_hazardous_asteroid": false,
    "close_approach_data": [
        {
            "close_approach_date": "2012-01-30",
            "close_approach_date_full": "2012-Jan-30 14:46",
            "epoch_date_close_approach": 1327934760000,
            "relative_velocity": {
                "kilometers_per_second": "16.3390582864",
                "kilometers_per_hour": "58820.6098309572",
                "miles_per_hour": "36548.8394807967"
            },
            "miss_distance": {
                "astronomical": "0.0280337281",
                "lunar": "10.9051202309",
                "kilometers": "4193786.011919147",
                "miles": "2605897.7907203486"
            },
            "orbiting_body": "Earth"
        }
    ],
    "orbital_data": {
        "orbit_id": "5",
        "orbit_determination_date": "2017-04-06 08:51:06",
        "first_observation_date": "2012-01-30",
        "last_observation_date": "2012-02-02",
        "data_arc_in_days": 3,
        "observations_used": 12,
        "orbit_uncertainty": "9",
        "minimum_orbit_intersection": ".0104259",
        "jupiter_tisserand_invariant": "3.977",
        "epoch_osculation": "2455958.5",
        "eccentricity": ".4306089170081396",
        "semi_major_axis": "1.707832693249568",
        "inclination": "25.9007401064298",
        "ascending_node_longitude": "131.3011481358416",
        "orbital_period": "815.2042054866039",
        "perihelion_distance": ".9724247067782775",
        "perihelion_argument": "22.91385175754775",
        "aphelion_distance": "2.443240679720859",
        "perihelion_time": "2455975.924964016127",
        "mean_anomaly": "352.3050114270923",
        "mean_motion": ".4416071428202609",
        "equinox": "J2000",
        "orbit_class": {
            "orbit_class_type": "APO",
            "orbit_class_description": "Near-Earth asteroid orbits which cross the Earth’s orbit similar to that of 1862 Apollo",
            "orbit_class_range": "a (semi-major axis) > 1.0 AU; q (perihelion) < 1.017 AU"
        }
    },
    "is_sentry_object": false
}